IRIDIUM 39              
1 25042U 97069D   25299.86326580  .00000759  00000+0  19290-3 0  9993
2 25042  86.3933 154.7347 0016151 222.2486 137.7475 14.49406454468034
IRIDIUM 38              
1 25043U 97069E   25299.73871758  .00000541  00000+0  17149-3 0  9992
2 25043  86.4013 177.8640 0003556  56.9116 303.2423 14.38251308464868
IRIDIUM 42              
1 25077U 97077A   25299.76744176  .00000541  00000+0  17788-3 0  9993
2 25077  86.4024 184.1765 0002799  74.5864 285.5643 14.36478534460086
IRIDIUM 44              
1 25078U 97077B   25299.64450316  .00000541  00000+0  16420-3 0  9993
2 25078  86.3998 165.8265 0001736  28.2005 331.9288 14.40372865462628
IRIDIUM 45              
1 25104U 97082A   25299.63874661  .00026366  00000+0  81298-3 0  9999
2 25104  86.3575 343.8302 0104027 195.9012 163.8964 15.28200657472075
IRIDIUM 24              
1 25105U 97082B   25299.72508439  .00000667  00000+0  19607-3 0  9998
2 25105  86.3954  24.4886 0011547  14.2173 345.9350 14.42260329462170
IRIDIUM 51              
1 25262U 98018A   25299.66410507  .00062093  00000+0  90289-3 0  9999
2 25262  86.3798 350.2215 0067693 101.5818 259.3052 15.52827450467320
IRIDIUM 57              
1 25273U 98019B   25299.80722558  .00000583  00000+0  19403-3 0  9995
2 25273  86.3916  90.0763 0002102  87.3779 272.7658 14.35994385443677
